{
  "type": "FeatureCollection",
  "features": [
    {
      "type": "Feature",
      "properties": {
        "norad_id": 36073,
        "name": "COSMOS 2251 DEB",
        "group": "cosmos-2251-debris",
        "lat": 36.361905186818426,
        "lon": 111.83454243784644,
        "alt_km": 783.911601503457,
        "timestamp": "2025-12-22T20:43:46.245241+00:00",
        "meta_object_name": "COSMOS 2251 DEB",
        "meta_object_id": "1993-036AYL",
        "meta_epoch": "2025-12-18T03:58:06.481920",
        "meta_mean_motion": 14.34959898,
        "meta_eccentricity": 0.00240895,
        "meta_inclination": 74.0326,
        "meta_ra_of_asc_node": 312.6126,
        "meta_arg_of_pericenter": 19.0207,
        "meta_mean_anomaly": 341.1839,
        "meta_ephemeris_type": 0,
        "meta_classification_type": "U",
        "meta_norad_cat_id": 36073,
        "meta_element_set_no": 999,
        "meta_rev_at_epoch": 70285,
        "meta_bstar": 0.0001893667,
        "meta_mean_motion_dot": 5.14e-06,
        "meta_mean_motion_ddot": 0,
        "tle_line1": "1 36073U 93036AYL 25352.16535280  .00000514  00000+0  18937-3 0  9997",
        "tle_line2": "2 36073  74.0326 312.6126 0024089  19.0207 341.1839 14.34959898702857"
      },
      "geometry": {
        "type": "Point",
        "coordinates": [
          111.83454243784644,
          36.361905186818426
        ]
      }
    },
    {
      "type": "Feature",
      "properties": {
        "norad_id": 36074,
        "name": "COSMOS 2251 DEB",
        "group": "cosmos-2251-debris",
        "lat": -55.54882488656362,
        "lon": 166.34908024746542,
        "alt_km": 782.1291696555345,
        "timestamp": "2025-12-22T20:43:46.245251+00:00",
        "meta_object_name": "COSMOS 2251 DEB",
        "meta_object_id": "1993-036AYM",
        "meta_epoch": "2025-12-21T22:00:31.883616",
        "meta_mean_motion": 14.43788604,
        "meta_eccentricity": 0.00418297,
        "meta_inclination": 73.993,
        "meta_ra_of_asc_node": 323.3766,
        "meta_arg_of_pericenter": 52.2437,
        "meta_mean_anomaly": 308.2498,
        "meta_ephemeris_type": 0,
        "meta_classification_type": "U",
        "meta_norad_cat_id": 36074,
        "meta_element_set_no": 999,
        "meta_rev_at_epoch": 86042,
        "meta_bstar": 0.0010374017,
        "meta_mean_motion_dot": 3.543e-05,
        "meta_mean_motion_ddot": 0,
        "tle_line1": "1 36074U 93036AYM 25355.91703569  .00003543  00000+0  10374-2 0  9992",
        "tle_line2": "2 36074  73.9930 323.3766 0041829  52.2437 308.2498 14.43788604860429"
      },
      "geometry": {
        "type": "Point",
        "coordinates": [
          166.34908024746542,
          -55.54882488656362
        ]
      }
    },
    {
      "type": "Feature",
      "properties": {
        "norad_id": 36366,
        "name": "COSMOS 2251 DEB",
        "group": "cosmos-2251-debris",
        "lat": 22.087174403395377,
        "lon": 67.93146541661018,
        "alt_km": 815.1225130198882,
        "timestamp": "2025-12-22T20:43:46.245261+00:00",
        "meta_object_name": "COSMOS 2251 DEB",
        "meta_object_id": "1993-036AYT",
        "meta_epoch": "2025-12-21T17:11:32.767008",
        "meta_mean_motion": 14.33460542,
        "meta_eccentricity": 0.00902396,
        "meta_inclination": 74.0657,
        "meta_ra_of_asc_node": 256.6822,
        "meta_arg_of_pericenter": 283.124,
        "meta_mean_anomaly": 75.9853,
        "meta_ephemeris_type": 0,
        "meta_classification_type": "U",
        "meta_norad_cat_id": 36366,
        "meta_element_set_no": 999,
        "meta_rev_at_epoch": 86417,
        "meta_bstar": 0.0010533139,
        "meta_mean_motion_dot": 3.019e-05,
        "meta_mean_motion_ddot": 0,
        "tle_line1": "1 36366U 93036AYT 25355.71635147  .00003019  00000+0  10533-2 0  9995",
        "tle_line2": "2 36366  74.0657 256.6822 0090239 283.1240  75.9853 14.33460542864174"
      },
      "geometry": {
        "type": "Point",
        "coordinates": [
          67.93146541661018,
          22.087174403395377
        ]
      }
    },
    {
      "type": "Feature",
      "properties": {
        "norad_id": 36367,
        "name": "COSMOS 2251 DEB",
        "group": "cosmos-2251-debris",
        "lat": -71.39478612750497,
        "lon": 156.4922341052824,
        "alt_km": 757.3321464432847,
        "timestamp": "2025-12-22T20:43:46.245271+00:00",
        "meta_object_name": "COSMOS 2251 DEB",
        "meta_object_id": "1993-036AYU",
        "meta_epoch": "2025-12-20T08:29:16.285344",
        "meta_mean_motion": 13.86366524,
        "meta_eccentricity": 0.02619085,
        "meta_inclination": 74.1004,
        "meta_ra_of_asc_node": 218.5774,
        "meta_arg_of_pericenter": 289.7911,
        "meta_mean_anomaly": 67.515,
        "meta_ephemeris_type": 0,
        "meta_classification_type": "U",
        "meta_norad_cat_id": 36367,
        "meta_element_set_no": 999,
        "meta_rev_at_epoch": 57635,
        "meta_bstar": 0.0011101793,
        "meta_mean_motion_dot": 1.658e-05,
        "meta_mean_motion_ddot": 0,
        "tle_line1": "1 36367U 93036AYU 25354.35366071  .00001658  00000+0  11102-2 0  9992",
        "tle_line2": "2 36367  74.1004 218.5774 0261908 289.7911  67.5150 13.86366524576354"
      },
      "geometry": {
        "type": "Point",
        "coordinates": [
          156.4922341052824,
          -71.39478612750497
        ]
      }
    },
    {
      "type": "Feature",
      "properties": {
        "norad_id": 36369,
        "name": "COSMOS 2251 DEB",
        "group": "cosmos-2251-debris",
        "lat": 17.960546309760325,
        "lon": 56.308230848519536,
        "alt_km": 651.4168340981432,
        "timestamp": "2025-12-22T20:43:46.245281+00:00",
        "meta_object_name": "COSMOS 2251 DEB",
        "meta_object_id": "1993-036AYW",
        "meta_epoch": "2025-12-21T10:25:50.498400",
        "meta_mean_motion": 14.73682344,
        "meta_eccentricity": 0.0010476,
        "meta_inclination": 74.0314,
        "meta_ra_of_asc_node": 53.7689,
        "meta_arg_of_pericenter": 128.4088,
        "meta_mean_anomaly": 231.8027,
        "meta_ephemeris_type": 0,
        "meta_classification_type": "U",
        "meta_norad_cat_id": 36369,
        "meta_element_set_no": 999,
        "meta_rev_at_epoch": 86050,
        "meta_bstar": 0.00084133,
        "meta_mean_motion_dot": 5.466e-05,
        "meta_mean_motion_ddot": 0,
        "tle_line1": "1 36369U 93036AYW 25355.43461225  .00005466  00000+0  84133-3 0  9997",
        "tle_line2": "2 36369  74.0314  53.7689 0010476 128.4088 231.8027 14.73682344860509"
      },
      "geometry": {
        "type": "Point",
        "coordinates": [
          56.308230848519536,
          17.960546309760325
        ]
      }
    },
    {
      "type": "Feature",
      "properties": {
        "norad_id": 36371,
        "name": "COSMOS 2251 DEB",
        "group": "cosmos-2251-debris",
        "lat": -2.160121322238929,
        "lon": -37.52413559905268,
        "alt_km": 655.1491453198023,
        "timestamp": "2025-12-22T20:43:46.245290+00:00",
        "meta_object_name": "COSMOS 2251 DEB",
        "meta_object_id": "1993-036AYY",
        "meta_epoch": "2025-12-22T03:34:47.193312",
        "meta_mean_motion": 14.70793621,
        "meta_eccentricity": 0.0008891,
        "meta_inclination": 74.0127,
        "meta_ra_of_asc_node": 143.2448,
        "meta_arg_of_pericenter": 182.3975,
        "meta_mean_anomaly": 177.7155,
        "meta_ephemeris_type": 0,
        "meta_classification_type": "U",
        "meta_norad_cat_id": 36371,
        "meta_element_set_no": 999,
        "meta_rev_at_epoch": 71583,
        "meta_bstar": 0.002149597,
        "meta_mean_motion_dot": 0.00013129,
        "meta_mean_motion_ddot": 0,
        "tle_line1": "1 36371U 93036AYY 25356.14915733  .00013129  00000+0  21496-2 0  9994",
        "tle_line2": "2 36371  74.0127 143.2448 0008891 182.3975 177.7155 14.70793621715837"
      },
      "geometry": {
        "type": "Point",
        "coordinates": [
          -37.52413559905268,
          -2.160121322238929
        ]
      }
    },
    {
      "type": "Feature",
      "properties": {
        "norad_id": 36379,
        "name": "COSMOS 2251 DEB",
        "group": "cosmos-2251-debris",
        "lat": 14.738336921186438,
        "lon": 103.8836325420527,
        "alt_km": 782.899198575441,
        "timestamp": "2025-12-22T20:43:46.245300+00:00",
        "meta_object_name": "COSMOS 2251 DEB",
        "meta_object_id": "1993-036AZG",
        "meta_epoch": "2025-12-21T02:14:38.502816",
        "meta_mean_motion": 14.36091919,
        "meta_eccentricity": 0.00448164,
        "meta_inclination": 74.0129,
        "meta_ra_of_asc_node": 291.4624,
        "meta_arg_of_pericenter": 57.9805,
        "meta_mean_anomaly": 317.791,
        "meta_ephemeris_type": 0,
        "meta_classification_type": "U",
        "meta_norad_cat_id": 36379,
        "meta_element_set_no": 999,
        "meta_rev_at_epoch": 64948,
        "meta_bstar": 0.00021634378,
        "meta_mean_motion_dot": 6.11e-06,
        "meta_mean_motion_ddot": 0,
        "tle_line1": "1 36379U 93036AZG 25355.09350119  .00000611  00000+0  21634-3 0  9993",
        "tle_line2": "2 36379  74.0129 291.4624 0044816  57.9805 317.7910 14.36091919649480"
      },
      "geometry": {
        "type": "Point",
        "coordinates": [
          103.8836325420527,
          14.738336921186438
        ]
      }
    }
  ]
}